[{"OBJECT_NAME":"STARLINK-5195","OBJECT_ID":"2022-136A","EPOCH":"2026-03-09T23:24:47.058624","MEAN_MOTION":15.0880976,"ECCENTRICITY":0.00018772,"INCLINATION":53.2201,"RA_OF_ASC_NODE":343.0819,"ARG_OF_PERICENTER":106.9416,"MEAN_ANOMALY":253.1782,"EPHEMERIS_TYPE":0,"CLASSIFICATION_TYPE":"U","NORAD_CAT_ID":54051,"ELEMENT_SET_NO":999,"REV_AT_EPOCH":18688,"BSTAR":0.00043296823,"MEAN_MOTION_DOT":6.604e-5,"MEAN_MOTION_DDOT":0},{"OBJECT_NAME":"FENGYUN 1C DEB","OBJECT_ID":"1999-025CUF","EPOCH":"2026-03-09T01:34:38.628768","MEAN_MOTION":15.17132493,"ECCENTRICITY":0.01273829,"INCLINATION":98.8955,"RA_OF_ASC_NODE":293.2327,"ARG_OF_PERICENTER":89.1897,"MEAN_ANOMALY":272.3925,"EPHEMERIS_TYPE":0,"CLASSIFICATION_TYPE":"U","NORAD_CAT_ID":32185,"ELEMENT_SET_NO":999,"REV_AT_EPOCH":96318,"BSTAR":0.0036969643,"MEAN_MOTION_DOT":0.00091378,"MEAN_MOTION_DDOT":0}]
